COSMOS 2425 (716)       
1 29670U 06062A   17316.98710553 -.00000010  00000-0  10000-3 0  9990
2 29670  65.3886 299.8416 0021370 337.9012 191.0901  2.13105021 84704
COSMOS 2426 (717)       
1 29671U 06062B   17316.64029299 -.00000007  00000-0  10000-3 0  9990
2 29671  65.4066 299.9465 0017842 174.3569 305.8268  2.13103090 84705
COSMOS 2433 (720)       
1 32275U 07052A   17317.10048037 -.00000060  00000-0  10000-3 0  9996
2 32275  65.5847  60.6216 0002402 223.9527 223.8906  2.13104863 78222
COSMOS 2432 (719)       
1 32276U 07052B   17316.93797304 -.00000059  00000-0  10000-3 0  9993
2 32276  65.5967  60.7004 0009610 335.9835 299.7072  2.13103986 78216
COSMOS 2434 (721)       
1 32393U 07065A   17316.67833367 -.00000009  00000-0  00000+0 0  9998
2 32393  65.0043 298.9296 0002381 156.0713 216.7900  2.13102982 76929
COSMOS 2436 (723)       
1 32395U 07065C   17317.12501750 -.00000013  00000-0  10000-3 0  9999
2 32395  65.0135 298.9635 0014463 349.0579  55.9173  2.13104357 76864
COSMOS 2456 (730)       
1 36111U 09070A   17316.83938771  .00000052  00000-0  00000-0 0  9999
2 36111  64.1791 178.4959 0003557 334.5353 333.5002  2.13102992 61586
COSMOS 2457 (733)       
1 36112U 09070B   17316.54844007  .00000049  00000-0  00000+0 0  9991
2 36112  64.1608 178.4213 0006519 155.3698  57.3599  2.13101781 61586
COSMOS 2458 (734)       
1 36113U 09070C   17316.71751745  .00000051  00000-0  10000-3 0  9995
2 36113  64.1660 178.4250 0002369  43.1622 347.3711  2.13101957 61590
COSMOS 2459 (731)       
1 36400U 10007A   17316.84071484 -.00000060  00000-0  10000-3 0  9996
2 36400  65.4931  59.7181 0025581 353.6760 115.6795  2.13102208 59945
COSMOS 2461 (735)       
1 36401U 10007B   17316.80746200 -.00000059  00000-0  10000-3 0  9996
2 36401  65.4852  59.6956 0007038  80.8202 273.6377  2.13102151 59931
COSMOS 2460 (732)       
1 36402U 10007C   17317.13518436 -.00000062  00000-0  10000-3 0  9996
2 36402  65.4773  59.6558 0001490 140.8813 146.0006  2.13101776 59948
COSMOS 2464 (736)       
1 37139U 10041C   17316.52855236 -.00000008  00000-0  00000-0 0  9992
2 37139  64.6091 298.8493 0022199   5.6644 120.0332  2.13102752 56007
COSMOS 2471 (701K)      
1 37372U 11009A   17317.11700853 -.00000062  00000-0  00000+0 0  9995
2 37372  65.4742  59.6023 0008398 224.7453 187.5127  2.13107761 52222
COSMOS 2474 (742)       
1 37829U 11055A   17317.10531990  .00000055  00000-0  00000+0 0  9997
2 37829  64.5035 179.1127 0007054 244.8338 126.3290  2.13101942 47591
COSMOS 2476 (744)       
1 37867U 11064A   17317.07560285  .00000054  00000-0  00000+0 0  9993
2 37867  64.4840 179.1818 0016604 240.6169 153.7239  2.13102003 46944
COSMOS 2477 (745)       
1 37868U 11064B   17317.22223558  .00000056  00000-0  00000+0 0  9992
2 37868  64.4913 179.2232 0014373 241.8558  84.0310  2.13101877 46891
COSMOS 2475 (743)       
1 37869U 11064C   17317.51227946  .00000059  00000-0  00000+0 0  9993
2 37869  64.4994 179.2064 0018802 270.2539 234.6969  2.13102207 46914
COSMOS 2485 (747)       
1 39155U 13019A   17316.91142487  .00000052  00000-0  00000+0 0  9997
2 39155  64.6529 179.2489 0017056 235.0917  78.2805  2.13102060 35400
COSMOS 2492 (754)       
1 39620U 14012A   17316.51779311 -.00000057  00000-0  10000-3 0  9997
2 39620  65.3671  59.5907 0012986 330.3423  75.4801  2.13103463 28355
COSMOS 2500 (755)       
1 40001U 14032A   17316.68552328 -.00000059  00000-0  00000+0 0  9996
2 40001  65.3071  59.5720 0007038 195.6347 201.6045  2.13102814 26570
COSMOS 2501 (702K)      
1 40315U 14075A   17316.45300979 -.00000008  00000-0  00000+0 0  9993
2 40315  64.3351 300.1411 0016751 213.3537 169.6960  2.13098625 22974
COSMOS 2514 (751)       
1 41330U 16008A   17317.02964660 -.00000062  00000-0  00000+0 0  9996
2 41330  65.1084  59.6677 0010015 208.2145 273.3891  2.13103369 13742
COSMOS 2516 (753)       
1 41554U 16032A   17316.66626519 -.00000010  00000-0  00000+0 0  9991
2 41554  64.5548 299.9388 0014366 226.7026 228.0034  2.13101753 11347
COSMOS 2522 (752)       
1 42939U 17055A   17317.37515530 -.00000016  00000-0  00000+0 0  9990
2 42939  64.7846 299.8179 0010202 250.9357 253.9639  2.13101921  1115
